ordinal{string},comment{string},originator{string},norad_cat_id{string},object_name{string},object_type{string},classification_type{string},intldes{string},epoch{timestamp},epoch_microseconds{integer},mean_motion{decimal},eccentricity{decimal},inclination{decimal},ra_of_asc_node{decimal},arg_of_pericenter{decimal},mean_anomaly{decimal},ephemeris_type{string},element_set_no{string},rev_at_epoch{integer},bstar{decimal},mean_motion_dot{decimal},mean_motion_ddot{string},file{string},tle_line0{string},tle_line1{string},tle_line2{string},object_id{string},object_number{string},semimajor_axis{decimal},period{decimal},apogee{decimal},perigee{decimal}
1,GENERATED VIA SPACETRACK.ORG API,JSPOC,11301,COSMOS 1086,PAYLOAD,U,79024F,2019-02-21T22:19:45Z,580224,12.4784059000000003,0.00100650000000000002,74.0365000000000038,4.63260000000000005,32.190800000000003,23.3338000000000001,0,999,81931,-5.75710000000000033e-06,-1.69999999999999987e-07,0,2414564,0 COSMOS 1086,1 11301U 79024F   19052.93038866 -.00000017 +00000-0 -57571-5 0  9998,2 11301 074.0365 004.6326 0010065 032.1908 023.3338 12.47840590819313,1979-024F,11301,7851.67699999999968,115.399000000000001,1481.44399999999996,1465.6389999999999
1,GENERATED VIA SPACETRACK.ORG API,JSPOC,27370,RHESSI,PAYLOAD,U,02004A,2019-02-21T22:19:45Z,734016,15.3111950599999993,0.00129370000000000006,38.0320999999999998,253.2791,356.694099999999992,3.37420000000000009,0,999,94045,5.77419999999999971e-05,1.63599999999999992e-05,0,2414564,0 RHESSI,1 27370U 02004A   19052.93039044 +.00001636 +00000-0 +57742-4 0  9999,2 27370 038.0321 253.2791 0012937 356.6941 003.3742 15.31119506940456,2002-004A,27370,6850.60699999999997,94.0480000000000018,481.33499999999998,463.610000000000014
1,GENERATED VIA SPACETRACK.ORG API,JSPOC,11788,COSMOS 1176,PAYLOAD,U,80034A,2019-02-21T22:20:12Z,364224,13.9295279500000007,0.00468119999999999994,64.8268000000000058,243.550600000000003,339.837300000000027,20.0838999999999999,0,999,96960,-8.81909999999999998e-06,-1.04e-06,0,2414564,0 COSMOS 1176,1 11788U 80034A   19052.93069866 -.00000104 +00000-0 -88191-5 0  9993,2 11788 064.8268 243.5506 0046812 339.8373 020.0839 13.92952795969607,1980-034A,11788,7296.4380000000001,103.376999999999995,952.458999999999946,884.147000000000048
1,GENERATED VIA SPACETRACK.ORG API,JSPOC,42432,SES 10,PAYLOAD,U,17017A,2019-02-21T22:20:15Z,688896,1.00271072999999999,0.000291499999999999984,0.0149999999999999994,97.8204000000000065,239.230199999999996,82.6242000000000019,0,999,696,0,-2.95000000000000013e-06,0,2414380,0 SES 10,1 42432U 17017A   19052.93073714 -.00000295  00000-0  00000+0 0  9998,2 42432   0.0150  97.8204 0002915 239.2302  82.6242  1.00271073  6967,2017-017A,42432,42164.9309999999969,1436.10699999999997,35799.0869999999995,35774.5049999999974
1,GENERATED VIA SPACETRACK.ORG API,JSPOC,13175,COSMOS 1365,PAYLOAD,U,82043A,2019-02-21T22:20:16Z,814688,13.8960702600000001,0.0071999000000000004,65.0682999999999936,333.809700000000021,258.989300000000014,168.1738,0,999,86862,4.11650000000000031e-06,-8.40000000000000004e-07,0,2414564,0 COSMOS 1365,1 13175U 82043A   19052.93075017 -.00000084 +00000-0 +41165-5 0  9998,2 13175 065.0683 333.8097 0071999 258.9893 168.1738 13.89607026868625,1982-043A,13175,7308.14500000000044,103.626000000000005,982.628000000000043,877.392000000000053
1,GENERATED VIA SPACETRACK.ORG API,JSPOC,28982,ST5-C,PAYLOAD,U,06008C,2019-02-21T22:20:21Z,589152,12.0224808599999999,0.173165000000000013,105.560199999999995,217.511200000000002,107.318600000000004,272.403300000000002,0,999,21658,0.000250500000000000017,8.67399999999999996e-05,0,2414564,0 ST5-C,1 28982U 06008C   19052.93080543 +.00008674 +26569-5 +25050-3 0  9995,2 28982 105.5602 217.5112 1731650 107.3186 272.4033 12.02248086216584,2006-008C,28982,8048.94700000000012,119.775000000000006,3064.60800000000017,277.01600000000002
1,GENERATED VIA SPACETRACK.ORG API,JSPOC,9903,METEOR 1-27,PAYLOAD,U,77024A,2019-02-21T22:20:28Z,391424,14.0823551200000008,0.00361740000000000022,81.2489000000000061,206.168200000000013,352.380899999999997,7.68060000000000009,0,999,15140,-4.92680000000000033e-05,-7.19999999999999989e-07,0,2414564,0 METEOR 1-27,1  9903U 77024A   19052.93088416 -.00000072 +00000-0 -49268-4 0  9991,2  9903 081.2489 206.1682 0036174 352.3809 007.6806 14.08235512151400,1977-024A,9903,7243.55299999999988,102.254999999999995,891.620000000000005,839.215000000000032
1,GENERATED VIA SPACETRACK.ORG API,JSPOC,2389,OV3-3,PAYLOAD,U,66070A,2019-02-21T22:20:34Z,821312,12.9276590799999997,0.123851100000000006,81.3885999999999967,31.838000000000001,244.311399999999992,102.514099999999999,0,999,24917,7.03049999999999986e-05,1.25300000000000003e-05,0,2414564,0 OV3-3,1  2389U 66070A   19052.93095858 +.00001253 +00000-0 +70305-4 0  9995,2  2389 081.3886 031.8380 1238511 244.3114 102.5141 12.92765908249177,1966-070A,2389,7668.70200000000023,111.388999999999996,2240.3449999999998,340.79000000000002
1,GENERATED VIA SPACETRACK.ORG API,JSPOC,17583,COSMOS 1828,PAYLOAD,U,87026B,2019-02-21T22:20:45Z,629952,12.6620852199999998,0.00195370000000000005,82.5626000000000033,86.1864999999999952,49.0259,22.4008000000000003,0,999,47634,-1.34859999999999993e-05,8.00000000000000017e-08,0,2414564,0 COSMOS 1828,1 17583U 87026B   19052.93108368 +.00000008 +00000-0 -13486-4 0  9997,2 17583 082.5626 086.1865 0019537 049.0259 022.4008 12.66208522476347,1987-026B,17583,7775.5600000000004,113.724999999999994,1412.61599999999999,1382.23399999999992
1,GENERATED VIA SPACETRACK.ORG API,JSPOC,10792,YURI (BSE),PAYLOAD,U,78039A,2019-02-21T22:20:47Z,630976,1.00206642000000001,0.00134559999999999996,11.6437000000000008,315.053099999999972,261.347100000000012,359.911400000000015,0,999,9196,0,-2.34000000000000004e-06,0,2414564,0 YURI (BSE),1 10792U 78039A   19052.93110684 -.00000234 +00000-0 +00000-0 0  9995,2 10792 011.6437 315.0531 0013456 261.3471 359.9114 01.00206642091962,1978-039A,10792,42183.002999999997,1437.02999999999997,35861.6299999999974,35748.1070000000036
1,GENERATED VIA SPACETRACK.ORG API,JSPOC,42868,FLOCK 2K 38,PAYLOAD,U,17042AV,2019-02-21T22:20:49Z,555968,15.3831752900000005,0.000846300000000000025,96.9557999999999964,301.766300000000001,291.028300000000002,69.0057000000000045,0,999,9001,0.000120429999999999997,4.47599999999999984e-05,0,2414564,0 FLOCK 2K 38,1 42868U 17042AV  19052.93112912 +.00004476 +00000-0 +12043-3 0  9991,2 42868 096.9558 301.7663 0008463 291.0283 069.0057 15.38317529090015,2017-042AV,42868,6829.22099999999955,93.6080000000000041,456.865000000000009,445.305999999999983
1,GENERATED VIA SPACETRACK.ORG API,JSPOC,11573,COSMOS 1140,PAYLOAD,U,79089A,2019-02-21T22:20:55Z,324896,14.3658565800000009,0.00160640000000000002,74.066599999999994,290.167399999999986,343.654899999999998,16.4084000000000003,0,999,6103,1.27589999999999993e-05,1.10000000000000006e-07,0,2414564,0 COSMOS 1140,1 11573U 79089A   19052.93119589 +.00000011 +00000-0 +12759-4 0  9992,2 11573 074.0666 290.1674 0016064 343.6549 016.4084 14.36585658061032,1979-089A,11573,7147.9380000000001,100.236999999999995,781.285999999999945,758.321000000000026
1,GENERATED VIA SPACETRACK.ORG API,JSPOC,1328,EXPLORER 27,PAYLOAD,U,65032A,2019-02-21T22:21:22Z,585824,13.3859040100000009,0.0254997000000000001,41.1841000000000008,288.62360000000001,85.8216000000000037,277.163400000000024,0,999,63063,-8.92730000000000006e-06,-9.1999999999999998e-07,0,2414193,0 EXPLORER 27,1  1328U 65032A   19052.93151141 -.00000092  00000-0 -89273-5 0  9999,2  1328  41.1841 288.6236 0254997  85.8216 277.1634 13.38590401630638,1965-032A,1328,7492.67100000000028,107.575000000000003,1305.59699999999998,923.475000000000023
1,GENERATED VIA SPACETRACK.ORG API,JSPOC,25067,JCSAT 5,PAYLOAD,U,97075A,2019-02-21T22:21:23Z,524128,0.986532889999999996,0.00123670000000000008,6.62490000000000023,55.6796999999999969,128.674299999999988,239.803899999999999,0,999,7766,0,-1.43999999999999998e-06,0,2414234,0 JCSAT 5,1 25067U 97075A   19052.93152227 -.00000144  00000-0  00000+0 0  9995,2 25067   6.6249  55.6797 0012367 128.6743 239.8039  0.98653289 77668,1997-075A,25067,42624.6469999999972,1459.65699999999993,36299.2249999999985,36193.7980000000025
1,GENERATED VIA SPACETRACK.ORG API,JSPOC,39440,CUBEBUG 2,PAYLOAD,U,13066AA,2019-02-21T22:21:24Z,277536,14.7579535899999996,0.00818149999999999954,97.6003999999999934,58.279200000000003,104.076400000000007,256.955699999999979,0,999,28155,3.02369999999999987e-05,1.68999999999999991e-06,0,2414564,0 CUBEBUG 2,1 39440U 13066AA  19052.93153099 +.00000169 +00000-0 +30237-4 0  9997,2 39440 097.6004 058.2792 0081815 104.0764 256.9557 14.75795359281551,2013-066AA,39440,7020.76400000000012,97.5739999999999981,700.07000000000005,585.188999999999965
1,GENERATED VIA SPACETRACK.ORG API,JSPOC,38251,BEIDOU 13,PAYLOAD,U,12018B,2019-02-21T22:21:25Z,958880,1.86233720999999997,0.0028368,56.515900000000002,33.0262999999999991,235.306399999999996,292.321799999999996,0,999,4652,0.000100000000000000005,-7.09999999999999978e-07,0,2414564,0 BEIDOU 13,1 38251U 12018B   19052.93155045 -.00000071 +00000-0 +10000-3 0  9993,2 38251 056.5159 033.0263 0028368 235.3064 292.3218 01.86233721046526,2012-018B,38251,27905.9160000000011,773.221000000000004,21606.9449999999997,21448.6179999999986
1,GENERATED VIA SPACETRACK.ORG API,JSPOC,42934,AMAZONAS 5,PAYLOAD,U,17053A,2019-02-21T22:22:01Z,210080,1.00271426000000008,0.000497200000000000051,0.0456999999999999976,327.689300000000003,15.1757000000000009,83.1428999999999974,0,999,533,0,-3.05000000000000002e-06,0,2414344,0 AMAZONAS 5,1 42934U 17053A   19052.93195845 -.00000305  00000-0  00000+0 0  9997,2 42934   0.0457 327.6893 0004972  15.1757  83.1429  1.00271426  5337,2017-053A,42934,42164.8320000000022,1436.10200000000009,35807.6610000000001,35765.7330000000002
